[{"OBJECT_NAME":"STARLINK-2380","OBJECT_ID":"2021-018N","EPOCH":"2026-03-10T00:00:02.999808","MEAN_MOTION":15.13878952,"ECCENTRICITY":0.00017365,"INCLINATION":53.0862,"RA_OF_ASC_NODE":230.0961,"ARG_OF_PERICENTER":70.6216,"MEAN_ANOMALY":14.3267,"EPHEMERIS_TYPE":0,"CLASSIFICATION_TYPE":"U","NORAD_CAT_ID":47799,"ELEMENT_SET_NO":999,"REV_AT_EPOCH":569,"BSTAR":0.058689592,"MEAN_MOTION_DOT":0.0117011,"MEAN_MOTION_DDOT":0},{"OBJECT_NAME":"KUIPER-00276","OBJECT_ID":"2026-030AG","EPOCH":"2026-03-09T22:00:01.999584","MEAN_MOTION":15.30162454,"ECCENTRICITY":0.00186471,"INCLINATION":51.8824,"RA_OF_ASC_NODE":218.7283,"ARG_OF_PERICENTER":66.9346,"MEAN_ANOMALY":101.1527,"EPHEMERIS_TYPE":0,"CLASSIFICATION_TYPE":"U","NORAD_CAT_ID":67794,"ELEMENT_SET_NO":999,"REV_AT_EPOCH":482,"BSTAR":0.0021152378,"MEAN_MOTION_DOT":0.00063116,"MEAN_MOTION_DDOT":0}]
